[{"OBJECT_NAME":"STARLINK-31957","OBJECT_ID":"2024-106E","EPOCH":"2026-03-09T03:26:56.734080","MEAN_MOTION":15.27570718,"ECCENTRICITY":0.00013933,"INCLINATION":43.0018,"RA_OF_ASC_NODE":335.2378,"ARG_OF_PERICENTER":274.7121,"MEAN_ANOMALY":85.3571,"EPHEMERIS_TYPE":0,"CLASSIFICATION_TYPE":"U","NORAD_CAT_ID":59926,"ELEMENT_SET_NO":999,"REV_AT_EPOCH":10049,"BSTAR":-3.6464619e-5,"MEAN_MOTION_DOT":-1.265e-5,"MEAN_MOTION_DDOT":0},{"OBJECT_NAME":"SL-24 DEB","OBJECT_ID":"2013-066AL","EPOCH":"2026-03-09T22:28:39.180576","MEAN_MOTION":15.26992446,"ECCENTRICITY":0.00036318,"INCLINATION":97.3978,"RA_OF_ASC_NODE":75.9402,"ARG_OF_PERICENTER":273.216,"MEAN_ANOMALY":86.8663,"EPHEMERIS_TYPE":0,"CLASSIFICATION_TYPE":"U","NORAD_CAT_ID":39450,"ELEMENT_SET_NO":999,"REV_AT_EPOCH":67244,"BSTAR":0.00070559472,"MEAN_MOTION_DOT":0.00018651,"MEAN_MOTION_DDOT":0}]
